[{"OBJECT_NAME":"STARLINK-30510","OBJECT_ID":"2023-151T","EPOCH":"2026-03-08T19:08:18.718368","MEAN_MOTION":15.02539259,"ECCENTRICITY":0.00012768,"INCLINATION":43.006,"RA_OF_ASC_NODE":356.8477,"ARG_OF_PERICENTER":250.8138,"MEAN_ANOMALY":109.2566,"EPHEMERIS_TYPE":0,"CLASSIFICATION_TYPE":"U","NORAD_CAT_ID":57981,"ELEMENT_SET_NO":999,"REV_AT_EPOCH":13544,"BSTAR":2.1665047e-5,"MEAN_MOTION_DOT":8.9e-7,"MEAN_MOTION_DDOT":0},{"OBJECT_NAME":"FENGYUN 1C DEB","OBJECT_ID":"1999-025DRB","EPOCH":"2026-03-08T17:06:23.542272","MEAN_MOTION":14.91461657,"ECCENTRICITY":0.00586124,"INCLINATION":98.8697,"RA_OF_ASC_NODE":161.9577,"ARG_OF_PERICENTER":340.9686,"MEAN_ANOMALY":18.9339,"EPHEMERIS_TYPE":0,"CLASSIFICATION_TYPE":"U","NORAD_CAT_ID":35243,"ELEMENT_SET_NO":999,"REV_AT_EPOCH":92280,"BSTAR":0.0026680093,"MEAN_MOTION_DOT":0.00027599,"MEAN_MOTION_DDOT":0}]
